[{"OBJECT_NAME":"NUSHSAT1","OBJECT_ID":"2025-052B","EPOCH":"2026-03-09T15:31:41.225952","MEAN_MOTION":15.31903202,"ECCENTRICITY":0.0005501,"INCLINATION":97.4095,"RA_OF_ASC_NODE":325.7239,"ARG_OF_PERICENTER":84.7512,"MEAN_ANOMALY":275.4357,"EPHEMERIS_TYPE":0,"CLASSIFICATION_TYPE":"U","NORAD_CAT_ID":63211,"ELEMENT_SET_NO":999,"REV_AT_EPOCH":5488,"BSTAR":0.00074857,"MEAN_MOTION_DOT":0.00023034,"MEAN_MOTION_DDOT":0},{"OBJECT_NAME":"STARLINK-35320","OBJECT_ID":"2025-221M","EPOCH":"2026-03-09T18:48:58.534848","MEAN_MOTION":15.30207074,"ECCENTRICITY":0.00013746,"INCLINATION":53.1599,"RA_OF_ASC_NODE":88.2034,"ARG_OF_PERICENTER":82.3549,"MEAN_ANOMALY":277.7608,"EPHEMERIS_TYPE":0,"CLASSIFICATION_TYPE":"U","NORAD_CAT_ID":65834,"ELEMENT_SET_NO":999,"REV_AT_EPOCH":2474,"BSTAR":0.00076148063,"MEAN_MOTION_DOT":0.00022266,"MEAN_MOTION_DDOT":0}]
